ONEWEB-0473             
1 51653U 22012AH  26170.08647263 -.00000283  00000+0 -84690-3 0  9993
2 51653  87.8824  35.8980 0001772  78.8566 281.2760 13.10266983209555
ONEWEB-0474             
1 51654U 22012AJ  26170.07811724  .00000582  00000+0  16341-2 0  9995
2 51654  87.8840  35.8843 0001568  75.0455 285.0846 13.10298154209542
ONEWEB-0475             
1 51655U 22012AK  26170.27262406  .00000033  00000+0  51200-4 0  9991
2 51655  87.9132   5.4577 0001430  70.8162 289.3124 13.17648740213965
ONEWEB-0490             
1 54113U 22138A   26170.10582314  .00000098  00000+0  21359-3 0  9999
2 54113  87.9178 304.5846 0001731 102.8728 257.2598 13.19724876177085
ONEWEB-0492             
1 54114U 22138B   26169.90364779 -.00000029  00000+0 -10493-3 0  9992
2 54114  87.9172 304.6262 0001851 107.2120 252.9216 13.19726133177066
ONEWEB-0495             
1 54115U 22138C   26169.88153169  .00000012  00000+0 -21698-5 0  9991
2 54115  87.9171 304.6328 0001316 111.8838 248.2435 13.19724455177046
ONEWEB-0497             
1 54116U 22138D   26170.12161843  .00000049  00000+0  91010-4 0  9992
2 54116  87.9179 304.5773 0001814 101.0572 259.0765 13.19724731177062
ONEWEB-0499             
1 54117U 22138E   26170.10502940  .00000027  00000+0  35316-4 0  9991
2 54117  87.9172 304.5896 0001617  99.2468 260.8848 13.19726780177074
ONEWEB-0500             
1 54118U 22138F   26169.87995025 -.00000007  00000+0 -51017-4 0  9990
2 54118  87.9178 304.6289 0001968 100.8926 259.2429 13.19724246177055
ONEWEB-0501             
1 54119U 22138G   26170.13741129  .00000072  00000+0  14742-3 0  9999
2 54119  87.9180 304.5772 0001467 106.5962 253.5332 13.19723609177065
ONEWEB-0502             
1 54120U 22138H   26170.12319170 -.00000094  00000+0 -26794-3 0  9993
2 54120  87.9180 304.5689 0001618  96.7972 263.3345 13.19723262177083
ONEWEB-0503             
1 54121U 22138J   26170.11214105  .00000036  00000+0  57968-4 0  9997
2 54121  87.9182 304.5771 0001905  91.1870 268.9481 13.19724460177075
ONEWEB-0504             
1 54122U 22138K   26170.09950844  .00000110  00000+0  24141-3 0  9991
2 54122  87.9180 304.5846 0001628  96.5675 263.5643 13.19724898177088
ONEWEB-0505             
1 54123U 22138L   26170.09634850  .00000038  00000+0  63602-4 0  9993
2 54123  87.9180 304.5862 0001385 101.9266 258.2023 13.19726218177063
ONEWEB-0506             
1 54124U 22138M   26170.07106701 -.00000063  00000+0 -19047-3 0  9994
2 54124  87.9181 304.5882 0001544 102.3382 257.7924 13.19724074177059
ONEWEB-0507             
1 54125U 22138N   26170.09161074  .00000057  00000+0  10899-3 0  9998
2 54125  87.9170 304.5962 0001696 102.7223 257.4099 13.19724916177104
ONEWEB-0508             
1 54126U 22138P   26169.93681052  .00000020  00000+0  17919-4 0  9994
2 54126  87.9170 304.6265 0001574 110.2179 249.9123 13.19724131177069
ONEWEB-0509             
1 54127U 22138Q   26170.06316923 -.00000037  00000+0 -12528-3 0  9993
2 54127  87.9182 304.5910 0001720 100.7562 259.3764 13.19724752177056
ONEWEB-0510             
1 54128U 22138R   26170.25320876  .00000088  00000+0  18338-3 0  9996
2 54128  87.9198 274.0243 0002392  93.9120 266.2287 13.20772234179557
ONEWEB-0511             
1 54129U 22138S   26170.13583271  .00000032  00000+0  47279-4 0  9990
2 54129  87.9177 304.5790 0001716  91.8682 268.2647 13.19726057177099
ONEWEB-0512             
1 54130U 22138T   26170.12792973  .00000113  00000+0  25072-3 0  9998
2 54130  87.9169 304.5857 0001529  97.4726 262.6581 13.19725979177063
ONEWEB-0513             
1 54131U 22138U   26170.13274866 -.00000016  00000+0 -71461-4 0  9994
2 54131  87.9180 304.5285 0001038  78.3481 281.7769 13.20268310176975
ONEWEB-0514             
1 54132U 22138V   26170.06791081  .00000016  00000+0  70007-5 0  9994
2 54132  87.9182 304.5915 0002002  96.4754 263.6606 13.19725182177078
ONEWEB-0515             
1 54133U 22138W   26170.23974025  .00000174  00000+0  39644-3 0  9990
2 54133  87.9204 274.0214 0002779 108.6762 251.4673 13.20770810179579
ONEWEB-0516             
1 54134U 22138X   26170.11844787  .00000165  00000+0  38001-3 0  9995
2 54134  87.9168 304.5878 0001865 105.1729 254.9610 13.19725893177086
ONEWEB-0517             
1 54135U 22138Y   26170.09792223  .00000054  00000+0  10192-3 0  9998
2 54135  87.9179 304.5842 0001930  89.9109 270.2245 13.19724590177082
ONEWEB-0518             
1 54136U 22138Z   26170.11688531  .00000007  00000+0 -15686-4 0  9991
2 54136  87.9170 304.5899 0001885 105.4270 254.7071 13.19727152177089
ONEWEB-0519             
1 54137U 22138AA  26170.06633566 -.00000072  00000+0 -21265-3 0  9996
2 54137  87.9184 304.5915 0001897  92.2570 267.8780 13.19726391177089
ONEWEB-0520             
1 54138U 22138AB  26170.10108767 -.00000010  00000+0 -58447-4 0  9997
2 54138  87.9180 304.5846 0001634 103.1702 256.9613 13.19724480177077
ONEWEB-0521             
1 54139U 22138AC  26170.13424968  .00000044  00000+0  77330-4 0  9992
2 54139  87.9182 304.5666 0001922  91.9568 268.1785 13.19724989177028
